start=new Date('2022-10-10T00:00:00.000Z').valueOf();
sats=[{"PERIOD":"95.436","SITE":"AFWTR","RCS_SIZE":"LARGE","INCLINATION":"53.2161","OBJECT_TYPE":"PAYLOAD","EPHEMERIS_TYPE":"0","BSTAR":"0.00114840000000","REF_FRAME":"TEME","OBJECT_ID":"2022-017AL","COUNTRY_CODE":"US","REV_AT_EPOCH":"3571","DECAY_DATE":null,"TLE_LINE1":"1 51802U 22017AL  22283.00111724  .00018052  00000-0  11484-2 0  9997","SEMIMAJOR_AXIS":"6917.782","OBJECT_NAME":"STARLINK-3557","ARG_OF_PERICENTER":"60.2028","RA_OF_ASC_NODE":"185.7357","PERIAPSIS":"538.443","MEAN_MOTION":"15.08872234","GP_ID":"214606919","CENTER_NAME":"EARTH","MEAN_MOTION_DDOT":"0.0000000000000","APOAPSIS":"540.851","CLASSIFICATION_TYPE":"U","ELEMENT_SET_NO":"999","MEAN_ANOMALY":"299.9137","MEAN_ELEMENT_THEORY":"SGP4","EPOCH":"2022-10-10T00:01:36.529536","TIME_SYSTEM":"UTC","FILE":"3598905","NORAD_CAT_ID":"51802","ECCENTRICITY":"0.00017400","TLE_LINE2":"2 51802  53.2161 185.7357 0001740  60.2028 299.9137 15.08872234 35718","LAUNCH_DATE":"2022-02-25","MEAN_MOTION_DOT":"0.00018052"},{"LAUNCH_DATE":"2022-02-25","MEAN_MOTION_DOT":"0.00001351","TLE_LINE2":"2 51803  53.2170 185.2602 0001710  54.4649 305.6502 15.08840125 35724","NORAD_CAT_ID":"51803","FILE":"3598909","ECCENTRICITY":"0.00017100","TIME_SYSTEM":"UTC","EPOCH":"2022-10-10T02:28:36.672672","MEAN_ELEMENT_THEORY":"SGP4","MEAN_ANOMALY":"305.6502","ELEMENT_SET_NO":"999","CLASSIFICATION_TYPE":"U","APOAPSIS":"540.928","MEAN_MOTION_DDOT":"0.0000000000000","CENTER_NAME":"EARTH","GP_ID":"214606938","MEAN_MOTION":"15.08840125","PERIAPSIS":"538.562","RA_OF_ASC_NODE":"185.2602","TLE_LINE1":"1 51803U 22017AM  22283.10320223  .00001351  00000-0  10294-3 0  9998","ARG_OF_PERICENTER":"54.4649","SEMIMAJOR_AXIS":"6917.880","OBJECT_NAME":"STARLINK-3544","DECAY_DATE":null,"REV_AT_EPOCH":"3572","COUNTRY_CODE":"US","OBJECT_ID":"2022-017AM","REF_FRAME":"TEME","BSTAR":"0.00010294000000","EPHEMERIS_TYPE":"0","OBJECT_TYPE":"PAYLOAD","INCLINATION":"53.2170","RCS_SIZE":"LARGE","SITE":"AFWTR","PERIOD":"95.438"},{"DECAY_DATE":null,"REV_AT_EPOCH":"3605","COUNTRY_CODE":"US","OBJECT_ID":"2022-017AN","TLE_LINE1":"1 51804U 22017AN  22283.04983862  .00004659  00000-0  31058-3 0  9991","OBJECT_NAME":"STARLINK-3601","SEMIMAJOR_AXIS":"6917.856","ARG_OF_PERICENTER":"68.7166","SITE":"AFWTR","PERIOD":"95.437","REF_FRAME":"TEME","EPHEMERIS_TYPE":"0","BSTAR":"0.00031058000000","INCLINATION":"53.2182","OBJECT_TYPE":"PAYLOAD","RCS_SIZE":"LARGE","MEAN_ANOMALY":"291.3978","MEAN_ELEMENT_THEORY":"SGP4","CLASSIFICATION_TYPE":"U","ELEMENT_SET_NO":"999","TLE_LINE2":"2 51804  53.2182 165.5040 0001424  68.7166 291.3978 15.08847871 36059","LAUNCH_DATE":"2022-02-25","MEAN_MOTION_DOT":"0.00004659","FILE":"3598906","ECCENTRICITY":"0.00014240","NORAD_CAT_ID":"51804","TIME_SYSTEM":"UTC","EPOCH":"2022-10-10T01:11:46.056768","PERIAPSIS":"538.736","RA_OF_ASC_NODE":"165.5040","APOAPSIS":"540.706","CENTER_NAME":"EARTH","MEAN_MOTION_DDOT":"0.0000000000000","MEAN_MOTION":"15.08847871","GP_ID":"214606800"},{"MEAN_ELEMENT_THEORY":"SGP4","MEAN_ANOMALY":"313.9960","ELEMENT_SET_NO":"999","CLASSIFICATION_TYPE":"U","ECCENTRICITY":"0.00016840","FILE":"3598879","NORAD_CAT_ID":"51805","TIME_SYSTEM":"UTC","MEAN_MOTION_DOT":"0.00004610","LAUNCH_DATE":"2022-02-25","TLE_LINE2":"2 51805  53.2167 166.4094 0001684  46.1171 313.9960 15.08838304 36015","EPOCH":"2022-10-09T20:20:19.173696","PERIAPSIS":"538.586","RA_OF_ASC_NODE":"166.4094","MEAN_MOTION_DDOT":"0.0000000000000","CENTER_NAME":"EARTH","APOAPSIS":"540.916","GP_ID":"214603575","MEAN_MOTION":"15.08838304","REV_AT_EPOCH":"3601","DECAY_DATE":null,"OBJECT_ID":"2022-017AP","COUNTRY_CODE":"US","SEMIMAJOR_AXIS":"6917.886","TLE_LINE1":"1 51805U 22017AP  22282.84744414  .00004610  00000-0  30757-3 0  9999","ARG_OF_PERICENTER":"46.1171","OBJECT_NAME":"STARLINK-3605","SITE":"AFWTR","PERIOD":"95.438","BSTAR":"0.00030757000000","EPHEMERIS_TYPE":"0","REF_FRAME":"TEME","RCS_SIZE":"LARGE","OBJECT_TYPE":"PAYLOAD","INCLINATION":"53.2167"},{"RA_OF_ASC_NODE":"175.1745","PERIAPSIS":"538.502","MEAN_MOTION":"15.08836451","GP_ID":"214606971","CENTER_NAME":"EARTH","MEAN_MOTION_DDOT":"0.0000000000000","APOAPSIS":"541.010","CLASSIFICATION_TYPE":"U","ELEMENT_SET_NO":"999","MEAN_ANOMALY":"305.9402","MEAN_ELEMENT_THEORY":"SGP4","EPOCH":"2022-10-10T03:01:43.781952","TIME_SYSTEM":"UTC","FILE":"3598910","NORAD_CAT_ID":"51806","ECCENTRICITY":"0.00018130","TLE_LINE2":"2 51806  53.2167 175.1745 0001813  54.1758 305.9402 15.08836451 35876","LAUNCH_DATE":"2022-02-25","MEAN_MOTION_DOT":"0.00000998","PERIOD":"95.438","SITE":"AFWTR","RCS_SIZE":"LARGE","INCLINATION":"53.2167","OBJECT_TYPE":"PAYLOAD","EPHEMERIS_TYPE":"0","BSTAR":"0.00008082000000","REF_FRAME":"TEME","OBJECT_ID":"2022-017AQ","COUNTRY_CODE":"US","REV_AT_EPOCH":"3587","DECAY_DATE":null,"TLE_LINE1":"1 51806U 22017AQ  22283.12620118  .00000998  00000-0  80820-4 0  9998","ARG_OF_PERICENTER":"54.1758","SEMIMAJOR_AXIS":"6917.891","OBJECT_NAME":"STARLINK-3581"},{"RA_OF_ASC_NODE":"175.1414","PERIAPSIS":"538.149","GP_ID":"214606822","MEAN_MOTION":"15.08841133","MEAN_MOTION_DDOT":"0.0000000000000","CENTER_NAME":"EARTH","APOAPSIS":"541.335","ELEMENT_SET_NO":"999","CLASSIFICATION_TYPE":"U","MEAN_ELEMENT_THEORY":"SGP4","MEAN_ANOMALY":"321.5502","EPOCH":"2022-10-10T03:12:19.806048","NORAD_CAT_ID":"51807","FILE":"3598910","TIME_SYSTEM":"UTC","ECCENTRICITY":"0.00023030","LAUNCH_DATE":"2022-02-25","MEAN_MOTION_DOT":"0.00001903","TLE_LINE2":"2 51807  53.2161 175.1414 0002303  38.5655 321.5502 15.08841133 35925","PERIOD":"95.437","SITE":"AFWTR","RCS_SIZE":"LARGE","OBJECT_TYPE":"PAYLOAD","INCLINATION":"53.2161","BSTAR":"0.00013766000000","EPHEMERIS_TYPE":"0","REF_FRAME":"TEME","OBJECT_ID":"2022-017AR","COUNTRY_CODE":"US","REV_AT_EPOCH":"3592","DECAY_DATE":null,"TLE_LINE1":"1 51807U 22017AR  22283.13356257  .00001903  00000-0  13766-3 0  9991","OBJECT_NAME":"STARLINK-3606","SEMIMAJOR_AXIS":"6917.877","ARG_OF_PERICENTER":"38.5655"},{"GP_ID":"214606981","MEAN_MOTION":"15.08846982","MEAN_MOTION_DDOT":"0.0000000000000","CENTER_NAME":"EARTH","APOAPSIS":"540.878","RA_OF_ASC_NODE":"175.2044","PERIAPSIS":"538.570","EPOCH":"2022-10-10T02:51:07.783776","NORAD_CAT_ID":"51808","FILE":"3598911","ECCENTRICITY":"0.00016680","TIME_SYSTEM":"UTC","MEAN_MOTION_DOT":"0.00000350","LAUNCH_DATE":"2022-02-25","TLE_LINE2":"2 51808  53.2150 175.2044 0001668  57.6770 302.4384 15.08846982 35874","ELEMENT_SET_NO":"999","CLASSIFICATION_TYPE":"U","MEAN_ELEMENT_THEORY":"SGP4","MEAN_ANOMALY":"302.4384","RCS_SIZE":"LARGE","OBJECT_TYPE":"PAYLOAD","INCLINATION":"53.2150","BSTAR":"0.00004009100000","EPHEMERIS_TYPE":"0","REF_FRAME":"TEME","PERIOD":"95.437","SITE":"AFWTR","TLE_LINE1":"1 51808U 22017AS  22283.11884009  .00000350  00000-0  40091-4 0  9998","OBJECT_NAME":"STARLINK-3609","SEMIMAJOR_AXIS":"6917.859","ARG_OF_PERICENTER":"57.6770","OBJECT_ID":"2022-017AS","COUNTRY_CODE":"US","REV_AT_EPOCH":"3587","DECAY_DATE":null},{"ELEMENT_SET_NO":"999","CLASSIFICATION_TYPE":"U","MEAN_ELEMENT_THEORY":"SGP4","MEAN_ANOMALY":"308.9495","EPOCH":"2022-10-09T20:45:28.845216","FILE":"3598879","ECCENTRICITY":"0.00015520","NORAD_CAT_ID":"51809","TIME_SYSTEM":"UTC","LAUNCH_DATE":"2022-02-25","MEAN_MOTION_DOT":"0.00000203","TLE_LINE2":"2 51809  53.2160 176.3420 0001552  51.1636 308.9495 15.08843054 35835","RA_OF_ASC_NODE":"176.3420","PERIAPSIS":"538.662","GP_ID":"214604075","MEAN_MOTION":"15.08843054","MEAN_MOTION_DDOT":"0.0000000000000","CENTER_NAME":"EARTH","APOAPSIS":"540.810","OBJECT_ID":"2022-017AT","COUNTRY_CODE":"US","REV_AT_EPOCH":"3583","DECAY_DATE":null,"OBJECT_NAME":"STARLINK-3607","TLE_LINE1":"1 51809U 22017AT  22282.86491719  .00000203  00000-0  30865-4 0  9997","SEMIMAJOR_AXIS":"6917.871","ARG_OF_PERICENTER":"51.1636","PERIOD":"95.437","SITE":"AFWTR","RCS_SIZE":"LARGE","OBJECT_TYPE":"PAYLOAD","INCLINATION":"53.2160","BSTAR":"0.00003086500000","EPHEMERIS_TYPE":"0","REF_FRAME":"TEME"},{"RCS_SIZE":"LARGE","OBJECT_TYPE":"PAYLOAD","INCLINATION":"53.2189","BSTAR":"0.00017447000000","EPHEMERIS_TYPE":"0","REF_FRAME":"TEME","PERIOD":"95.437","SITE":"AFWTR","OBJECT_NAME":"STARLINK-3613","TLE_LINE1":"1 51810U 22017AU  22282.87783527  .00002490  00000-0  17447-3 0  9991","SEMIMAJOR_AXIS":"6917.869","ARG_OF_PERICENTER":"67.5626","OBJECT_ID":"2022-017AU","COUNTRY_CODE":"US","REV_AT_EPOCH":"3585","DECAY_DATE":null,"GP_ID":"214603822","MEAN_MOTION":"15.08843804","MEAN_MOTION_DDOT":"0.0000000000000","CENTER_NAME":"EARTH","APOAPSIS":"540.844","RA_OF_ASC_NODE":"166.2774","PERIAPSIS":"538.623","EPOCH":"2022-10-09T21:04:04.967328","ECCENTRICITY":"0.00016050","FILE":"3598879","NORAD_CAT_ID":"51810","TIME_SYSTEM":"UTC","LAUNCH_DATE":"2022-02-25","MEAN_MOTION_DOT":"0.00002490","TLE_LINE2":"2 51810  53.2189 166.2774 0001605  67.5626 292.5536 15.08843804 35856","ELEMENT_SET_NO":"999","CLASSIFICATION_TYPE":"U","MEAN_ELEMENT_THEORY":"SGP4","MEAN_ANOMALY":"292.5536"},{"PERIAPSIS":"538.471","RA_OF_ASC_NODE":"176.3731","CENTER_NAME":"EARTH","MEAN_MOTION_DDOT":"0.0000000000000","APOAPSIS":"541.016","MEAN_MOTION":"15.08840605","GP_ID":"214604571","MEAN_ANOMALY":"311.3474","MEAN_ELEMENT_THEORY":"SGP4","CLASSIFICATION_TYPE":"U","ELEMENT_SET_NO":"999","FILE":"3598879","TIME_SYSTEM":"UTC","NORAD_CAT_ID":"51811","ECCENTRICITY":"0.00018390","TLE_LINE2":"2 51811  53.2154 176.3731 0001839  48.7676 311.3474 15.08840605 35733","LAUNCH_DATE":"2022-02-25","MEAN_MOTION_DOT":"0.00002661","EPOCH":"2022-10-09T20:34:51.799872","SITE":"AFWTR","PERIOD":"95.438","EPHEMERIS_TYPE":"0","BSTAR":"0.00018521000000","REF_FRAME":"TEME","RCS_SIZE":"LARGE","INCLINATION":"53.2154","OBJECT_TYPE":"PAYLOAD","REV_AT_EPOCH":"3573","DECAY_DATE":null,"OBJECT_ID":"2022-017AV","COUNTRY_CODE":"US","OBJECT_NAME":"STARLINK-3569","TLE_LINE1":"1 51811U 22017AV  22282.85754398  .00002661  00000-0  18521-3 0  9998","SEMIMAJOR_AXIS":"6917.879","ARG_OF_PERICENTER":"48.7676"}];
